0 COSMOS 2251 DEB
1 36470U 93036BBV 13281.19115886  .00001859  00000-0  58140-3 0  2510
2 36470 073.8671 104.8036 0080557 114.4028 246.5870 14.39581613209612
0 COSMOS 2251 DEB
1 36470U 93036BBV 13287.09795541  .00002068  00000-0  64767-3 0  2534
2 36470 073.8656 093.7888 0076809 099.4884 261.5863 14.39610732210462
0 COSMOS 2251 DEB
1 36470U 93036BBV 13287.79284701  .00002280  00000-0  71584-3 0  2544
2 36470 073.8701 092.4962 0072162 095.3633 265.7751 14.39621558210568
0 COSMOS 2251 DEB
1 36470U 93036BBV 13290.08598382  .00003785  00000-0  11760-2 0  2554
2 36470 073.8731 088.1940 0077767 095.6720 265.6150 14.39654747210899
0 COSMOS 2251 DEB
1 36470U 93036BBV 13291.12825856  .00002531  00000-0  78753-3 0  2564
2 36470 073.8721 086.2537 0080483 099.3238 261.6639 14.39645710211049
0 COSMOS 2251 DEB
1 36470U 93036BBV 13292.10111454  .00002618  00000-0  81496-3 0  2570
2 36470 073.8681 084.4368 0079126 097.4315 263.6578 14.39653320211188
